[{"OBJECT_NAME":"STARLINK-32961","OBJECT_ID":"2025-039U","EPOCH":"2026-03-09T05:12:32.311296","MEAN_MOTION":15.27586627,"ECCENTRICITY":0.00014891,"INCLINATION":43.0039,"RA_OF_ASC_NODE":15.5279,"ARG_OF_PERICENTER":260.3089,"MEAN_ANOMALY":99.7595,"EPHEMERIS_TYPE":0,"CLASSIFICATION_TYPE":"U","NORAD_CAT_ID":63122,"ELEMENT_SET_NO":999,"REV_AT_EPOCH":5799,"BSTAR":0.00084262474,"MEAN_MOTION_DOT":0.00023002,"MEAN_MOTION_DDOT":0},{"OBJECT_NAME":"DMSP 5D-2 F13 DEB","OBJECT_ID":"1995-015HL","EPOCH":"2026-02-09T02:06:19.247328","MEAN_MOTION":15.12822218,"ECCENTRICITY":0.00117732,"INCLINATION":98.8603,"RA_OF_ASC_NODE":96.8879,"ARG_OF_PERICENTER":223.037,"MEAN_ANOMALY":136.9936,"EPHEMERIS_TYPE":0,"CLASSIFICATION_TYPE":"U","NORAD_CAT_ID":42294,"ELEMENT_SET_NO":999,"REV_AT_EPOCH":55633,"BSTAR":0.010466292,"MEAN_MOTION_DOT":0.00188804,"MEAN_MOTION_DDOT":0}]
